{"type": "FeatureCollection", "features": [{"type": "Feature", "properties": {"name": "Madagascar"}, "geometry": {"type": "Polygon", "coordinates": [[[44.254731, -20.376072], [44.334239, -20.16961], [44.473888, -19.986261], [44.471853, -19.87949], [44.37086, -19.774021], [44.479747, -19.483982], [44.234386, -19.0888], [44.257335, -18.803888], [44.041759, -18.396905], [44.000987, -17.937921], [44.035655, -17.769464], [43.924001, -17.546482], [44.151703, -17.094415], [44.430675, -16.700372], [44.411794, -16.573012], [44.462901, -16.485447], [44.398204, -16.340427], [44.444672, -16.195733], [44.868337, -16.22088], [45.266368, -15.923923], [45.297862, -16.111993], [45.406261, -16.054864], [45.379405, -15.97381], [45.570079, -15.943048], [45.604747, -16.051853], [45.660899, -15.803806], [45.948578, -15.774184], [45.958751, -15.839939], [46.066091, -15.861912], [46.070974, -15.778578], [46.015798, -15.79225], [46.144216, -15.703709], [46.235525, -15.717462], [46.207367, -15.819513], [46.331065, -15.977227], [46.337901, -15.936212], [46.384939, -15.959161], [46.38559, -15.902114], [46.468761, -15.95672], [46.444347, -15.881036], [46.299001, -15.815688], [46.355642, -15.732517], [46.303722, -15.710219], [46.332693, -15.630141], [46.949474, -15.198419], [47.074718, -15.323989], [46.958263, -15.549574], [46.997244, -15.494724], [47.232107, -15.433282], [47.055919, -15.193617], [47.241384, -14.969659], [47.371837, -14.890558], [47.368337, -14.846612], [47.308604, -14.875177], [47.283702, -14.846938], [47.444835, -14.671563], [47.5171, -14.819594], [47.420665, -14.96559], [47.427745, -15.107599], [47.562511, -14.98504], [47.651866, -14.758884], [47.79713, -14.566339], [47.920665, -14.709731], [47.914399, -14.640802], [47.968598, -14.622166], [48.000255, -14.762302], [48.013031, -14.63006], [47.803884, -14.545587], [47.75294, -14.600518], [47.701508, -14.446384], [47.790863, -14.22324], [47.943533, -14.232517], [47.920095, -14.086033], [48.013682, -14.140558], [47.982758, -14.325372], [48.033946, -14.262384], [48.048188, -14.08408], [47.941091, -14.004083], [48.0171, -13.952813], [47.917491, -13.897638], [47.875824, -13.784275], [47.927501, -13.709242], [47.904307, -13.603204], [47.984874, -13.506768], [48.01531, -13.580173], [48.06837, -13.517348], [48.099376, -13.599379], [48.142426, -13.595392], [48.192393, -13.76686], [48.298676, -13.798272], [48.341156, -13.755548], [48.333344, -13.546319], [48.393565, -13.585707], [48.427582, -13.524184], [48.53419, -13.520766], [48.48227, -13.360447], [48.604991, -13.445489], [48.780121, -13.383884], [48.955333, -12.8117], [48.865896, -12.647231], [48.886974, -12.56463], [48.839203, -12.56463], [48.773692, -12.435235], [48.729991, -12.434991], [48.759613, -12.398126], [48.852712, -12.413751], [48.904063, -12.488946], [48.945811, -12.479913], [48.98463, -12.333429], [49.151215, -12.250746], [49.201508, -12.146661], [49.093028, -12.098565], [49.161388, -12.050714], [49.223399, -12.106052], [49.181895, -12.043878], [49.278087, -11.947686], [49.373057, -12.198175], [49.263845, -12.140232], [49.229666, -12.222101], [49.349376, -12.298517], [49.381358, -12.222833], [49.456228, -12.373468], [49.539399, -12.378188], [49.490408, -12.406996], [49.558604, -12.420668], [49.586436, -12.482029], [49.562511, -12.627862], [49.653331, -12.694757], [49.654796, -12.804864], [49.744151, -12.743422], [49.942149, -13.033868], [49.942149, -13.219496], [49.976899, -13.346124], [50.032888, -13.360528], [50.142914, -13.783136], [50.164236, -14.223077], [50.212901, -14.287205], [50.18922, -14.439142], [50.240896, -14.705987], [50.209727, -14.750665], [50.490001, -15.219496], [50.483409, -15.443455], [50.336762, -15.811293], [50.230154, -15.970961], [50.168142, -15.984633], [49.970225, -15.718032], [49.901134, -15.422296], [49.717784, -15.44671], [49.638438, -15.54461], [49.733735, -15.905694], [49.689789, -16.086847], [49.849864, -16.240818], [49.854015, -16.539646], [49.724946, -16.754002], [49.840343, -16.827569], [49.608409, -16.89658], [49.431326, -17.283868], [49.509613, -17.727716], [49.359223, -18.424005], [49.076915, -19.065606], [48.791352, -19.993097], [48.750499, -19.965753], [48.781749, -20.037205], [48.562266, -20.577081], [48.201834, -21.796157], [47.900645, -22.481134], [47.738048, -23.255466], [47.619477, -23.59059], [47.596528, -23.563165], [47.574962, -23.598728], [47.620128, -23.640395], [47.568696, -23.852634], [47.370779, -24.270115], [47.324718, -24.269627], [47.312266, -24.485935], [47.128917, -24.844903], [47.12615, -24.93434], [47.105642, -24.879164], [47.094574, -24.960138], [46.964692, -25.065688], [46.926606, -25.043715], [46.653656, -25.183852], [46.237641, -25.198175], [45.774181, -25.408136], [45.561209, -25.559991], [45.162608, -25.598565], [44.834727, -25.344008], [44.369477, -25.256768], [44.296397, -25.153497], [44.384044, -25.22088], [44.404959, -25.188165], [44.028819, -24.998956], [43.918305, -24.741957], [43.918305, -24.619073], [43.672862, -24.334893], [43.665212, -23.878595], [43.624766, -23.761895], [43.641612, -23.63893], [43.748302, -23.570082], [43.761241, -23.4638], [43.631033, -23.344822], [43.583181, -23.07586], [43.361176, -22.843194], [43.222911, -22.254815], [43.301768, -22.218845], [43.246837, -22.035089], [43.302094, -21.864435], [43.308849, -21.932061], [43.329275, -21.905043], [43.336192, -21.768813], [43.431488, -21.662286], [43.472667, -21.672052], [43.507498, -21.309503], [43.73463, -21.281671], [43.812755, -21.224298], [43.901541, -20.882908], [44.036388, -20.725518], [44.125824, -20.498305], [44.254731, -20.376072]]]}}]}